0 EUTE 36B (EUTE W7)
1 36101U 09065A   13281.83858251  .00000143  00000-0  10000-3 0  8391
2 36101 000.0703 358.0650 0003861 195.6453 161.7561 01.00275063 14333
0 EUTE 36B (EUTE W7)
1 36101U 09065A   13282.96997476  .00000140  00000-0  10000-3 0  8408
2 36101 000.0697 357.0291 0003884 198.5420 208.3204 01.00275492 14356
0 EUTE 36B (EUTE W7)
1 36101U 09065A   13286.06837550  .00000131  00000-0  10000-3 0  8410
2 36101 000.0687 348.5788 0003992 208.8529 244.8969 01.00269725 14384
0 EUTE 36B (EUTE W7)
1 36101U 09065A   13287.08592109  .00000130  00000-0  10000-3 0  8421
2 36101 000.0688 348.6454 0003996 209.5336 251.4607 01.00270147 14398
0 EUTE 36B (EUTE W7)
1 36101U 09065A   13289.07750552  .00000131  00000-0  10000-3 0  8432
2 36101 000.0688 351.9524 0004090 211.5092 245.1029 01.00271352 14411
0 EUTE 36B (EUTE W7)
1 36101U 09065A   13290.07329373  .00000133  00000-0  10000-3 0  8440
2 36101 000.0689 350.6022 0004111 215.2751 242.1507 01.00271918 14425
0 EUTE 36B (EUTE W7)
1 36101U 09065A   13291.77646780  .00000136  00000-0  10000-3 0  8456
2 36101 000.0692 352.1088 0004198 214.6911 136.0545 01.00272886 14433
0 EUTE 36B (EUTE W7)
1 36101U 09065A   13293.06063142  .00000139  00000-0  10000-3 0  8469
2 36101 000.0692 352.4957 0004195 214.4091 239.5223 01.00273598 14450
0 EUTE 36B (EUTE W7)
1 36101U 09065A   13294.23099039  .00000141  00000-0  10000-3 0  8477
2 36101 000.0702 355.3171 0004337 215.3296 298.2701 01.00274199 14469
0 EUTE 36B (EUTE W7)
1 36101U 09065A   13295.82160113  .00000143  00000-0  10000-3 0  8488
2 36101 000.0703 355.0184 0004453 217.1658 150.9383 01.00275094 14489
